CCSDS_OMM_VERS = 2.0
CREATION_DATE  = 
ORIGINATOR     = 

OBJECT_NAME    = SHIYAN-30 03
OBJECT_ID      = 2026-048A
CENTER_NAME    = EARTH
REF_FRAME      = TEME
TIME_SYSTEM    = UTC
MEAN_ELEMENT_THEORY = SGP/SGP4

EPOCH          = 2026-03-26T07:17:29.891616
MEAN_MOTION    = 14.91708550
ECCENTRICITY   = .00035086
INCLINATION    = 35.0009
RA_OF_ASC_NODE = 44.4870
ARG_OF_PERICENTER = 338.0609
MEAN_ANOMALY   = 21.9945

EPHEMERIS_TYPE = 0
CLASSIFICATION_TYPE = U
NORAD_CAT_ID   = 68139
ELEMENT_SET_NO = 999
REV_AT_EPOCH   = 198
BSTAR          = .22651803E-3
MEAN_MOTION_DOT = .2296E-4
MEAN_MOTION_DDOT = 0

CCSDS_OMM_VERS = 2.0
CREATION_DATE  = 
ORIGINATOR     = 

OBJECT_NAME    = SHIYAN-30 04
OBJECT_ID      = 2026-048B
CENTER_NAME    = EARTH
REF_FRAME      = TEME
TIME_SYSTEM    = UTC
MEAN_ELEMENT_THEORY = SGP/SGP4

EPOCH          = 2026-03-26T07:18:32.715648
MEAN_MOTION    = 14.91717827
ECCENTRICITY   = .000202
INCLINATION    = 34.9924
RA_OF_ASC_NODE = 44.4904
ARG_OF_PERICENTER = 335.1380
MEAN_ANOMALY   = 24.9228

EPHEMERIS_TYPE = 0
CLASSIFICATION_TYPE = U
NORAD_CAT_ID   = 68140
ELEMENT_SET_NO = 999
REV_AT_EPOCH   = 198
BSTAR          = .21735475E-3
MEAN_MOTION_DOT = .2203E-4
MEAN_MOTION_DDOT = 0

CCSDS_OMM_VERS = 2.0
CREATION_DATE  = 
ORIGINATOR     = 

OBJECT_NAME    = STARLINK-36604
OBJECT_ID      = 2026-049A
CENTER_NAME    = EARTH
REF_FRAME      = TEME
TIME_SYSTEM    = UTC
MEAN_ELEMENT_THEORY = SGP/SGP4

EPOCH          = 2026-03-26T06:00:02.000160
MEAN_MOTION    = 15.80821703
ECCENTRICITY   = .00009809
INCLINATION    = 97.2837
RA_OF_ASC_NODE = 105.2870
ARG_OF_PERICENTER = 100.9955
MEAN_ANOMALY   = 254.3875

EPHEMERIS_TYPE = 0
CLASSIFICATION_TYPE = U
NORAD_CAT_ID   = 68142
ELEMENT_SET_NO = 999
REV_AT_EPOCH   = 329
BSTAR          = -.14361843E-3
MEAN_MOTION_DOT = -.27571E-3
MEAN_MOTION_DDOT = 0

CCSDS_OMM_VERS = 2.0
CREATION_DATE  = 
ORIGINATOR     = 

OBJECT_NAME    = STARLINK-36995
OBJECT_ID      = 2026-049B
CENTER_NAME    = EARTH
REF_FRAME      = TEME
TIME_SYSTEM    = UTC
MEAN_ELEMENT_THEORY = SGP/SGP4

EPOCH          = 2026-03-26T06:00:02.000160
MEAN_MOTION    = 15.80819129
ECCENTRICITY   = .0001127
INCLINATION    = 97.2840
RA_OF_ASC_NODE = 105.2885
ARG_OF_PERICENTER = 103.8591
MEAN_ANOMALY   = 255.8062

EPHEMERIS_TYPE = 0
CLASSIFICATION_TYPE = U
NORAD_CAT_ID   = 68143
ELEMENT_SET_NO = 999
REV_AT_EPOCH   = 328
BSTAR          = -.19103038E-3
MEAN_MOTION_DOT = -.36585E-3
MEAN_MOTION_DDOT = 0

CCSDS_OMM_VERS = 2.0
CREATION_DATE  = 
ORIGINATOR     = 

OBJECT_NAME    = STARLINK-37020
OBJECT_ID      = 2026-049C
CENTER_NAME    = EARTH
REF_FRAME      = TEME
TIME_SYSTEM    = UTC
MEAN_ELEMENT_THEORY = SGP/SGP4

EPOCH          = 2026-03-26T06:00:02.000160
MEAN_MOTION    = 15.80809277
ECCENTRICITY   = .00009155
INCLINATION    = 97.2839
RA_OF_ASC_NODE = 105.2924
ARG_OF_PERICENTER = 102.5459
MEAN_ANOMALY   = 265.6625

EPHEMERIS_TYPE = 0
CLASSIFICATION_TYPE = U
NORAD_CAT_ID   = 68144
ELEMENT_SET_NO = 999
REV_AT_EPOCH   = 328
BSTAR          = -.16663619E-3
MEAN_MOTION_DOT = -.31933E-3
MEAN_MOTION_DDOT = 0

CCSDS_OMM_VERS = 2.0
CREATION_DATE  = 
ORIGINATOR     = 

OBJECT_NAME    = STARLINK-36244
OBJECT_ID      = 2026-049D
CENTER_NAME    = EARTH
REF_FRAME      = TEME
TIME_SYSTEM    = UTC
MEAN_ELEMENT_THEORY = SGP/SGP4

EPOCH          = 2026-03-26T06:00:02.000160
MEAN_MOTION    = 15.80798234
ECCENTRICITY   = .00010962
INCLINATION    = 97.2839
RA_OF_ASC_NODE = 105.2946
ARG_OF_PERICENTER = 121.6537
MEAN_ANOMALY   = 255.1036

EPHEMERIS_TYPE = 0
CLASSIFICATION_TYPE = U
NORAD_CAT_ID   = 68145
ELEMENT_SET_NO = 999
REV_AT_EPOCH   = 329
BSTAR          = -.8361932E-5
MEAN_MOTION_DOT = -.1742E-4
MEAN_MOTION_DDOT = 0

CCSDS_OMM_VERS = 2.0
CREATION_DATE  = 
ORIGINATOR     = 

OBJECT_NAME    = STARLINK-36980
OBJECT_ID      = 2026-049E
CENTER_NAME    = EARTH
REF_FRAME      = TEME
TIME_SYSTEM    = UTC
MEAN_ELEMENT_THEORY = SGP/SGP4

EPOCH          = 2026-03-26T06:00:02.000160
MEAN_MOTION    = 15.80776998
ECCENTRICITY   = .00015411
INCLINATION    = 97.2839
RA_OF_ASC_NODE = 105.2937
ARG_OF_PERICENTER = 115.5159
MEAN_ANOMALY   = 256.9697

EPHEMERIS_TYPE = 0
CLASSIFICATION_TYPE = U
NORAD_CAT_ID   = 68146
ELEMENT_SET_NO = 999
REV_AT_EPOCH   = 328
BSTAR          = .24751762E-3
MEAN_MOTION_DOT = .47444E-3
MEAN_MOTION_DDOT = 0

CCSDS_OMM_VERS = 2.0
CREATION_DATE  = 
ORIGINATOR     = 

OBJECT_NAME    = STARLINK-37055
OBJECT_ID      = 2026-049F
CENTER_NAME    = EARTH
REF_FRAME      = TEME
TIME_SYSTEM    = UTC
MEAN_ELEMENT_THEORY = SGP/SGP4

EPOCH          = 2026-03-26T06:00:02.000160
MEAN_MOTION    = 15.80809529
ECCENTRICITY   = .0001322
INCLINATION    = 97.2839
RA_OF_ASC_NODE = 105.2902
ARG_OF_PERICENTER = 113.7026
MEAN_ANOMALY   = 250.2272

EPHEMERIS_TYPE = 0
CLASSIFICATION_TYPE = U
NORAD_CAT_ID   = 68147
ELEMENT_SET_NO = 999
REV_AT_EPOCH   = 328
BSTAR          = -.6003084E-5
MEAN_MOTION_DOT = -.1291E-4
MEAN_MOTION_DDOT = 0

CCSDS_OMM_VERS = 2.0
CREATION_DATE  = 
ORIGINATOR     = 

OBJECT_NAME    = STARLINK-36981
OBJECT_ID      = 2026-049G
CENTER_NAME    = EARTH
REF_FRAME      = TEME
TIME_SYSTEM    = UTC
MEAN_ELEMENT_THEORY = SGP/SGP4

EPOCH          = 2026-03-26T06:00:02.000160
MEAN_MOTION    = 15.80831197
ECCENTRICITY   = .00014848
INCLINATION    = 97.2840
RA_OF_ASC_NODE = 105.2972
ARG_OF_PERICENTER = 101.7183
MEAN_ANOMALY   = 279.3087

EPHEMERIS_TYPE = 0
CLASSIFICATION_TYPE = U
NORAD_CAT_ID   = 68148
ELEMENT_SET_NO = 999
REV_AT_EPOCH   = 328
BSTAR          = -.3675486E-3
MEAN_MOTION_DOT = -.70033E-3
MEAN_MOTION_DDOT = 0

CCSDS_OMM_VERS = 2.0
CREATION_DATE  = 
ORIGINATOR     = 

OBJECT_NAME    = STARLINK-36992
OBJECT_ID      = 2026-049H
CENTER_NAME    = EARTH
REF_FRAME      = TEME
TIME_SYSTEM    = UTC
MEAN_ELEMENT_THEORY = SGP/SGP4

EPOCH          = 2026-03-26T06:00:02.000160
MEAN_MOTION    = 15.80719236
ECCENTRICITY   = .00009214
INCLINATION    = 97.2837
RA_OF_ASC_NODE = 105.2988
ARG_OF_PERICENTER = 73.7466
MEAN_ANOMALY   = 311.5690

EPHEMERIS_TYPE = 0
CLASSIFICATION_TYPE = U
NORAD_CAT_ID   = 68149
ELEMENT_SET_NO = 999
REV_AT_EPOCH   = 328
BSTAR          = .90651977E-3
MEAN_MOTION_DOT = .176271E-2
MEAN_MOTION_DDOT = 0

