SHIYAN-30 03            
1 68139U 26048A   26085.30381819  .00002296  00000+0  22652-3 0  9999
2 68139  35.0009  44.4870 0003508 338.0609  21.9945 14.91708550  1986
SHIYAN-30 04            
1 68140U 26048B   26085.30454532  .00002203  00000+0  21735-3 0  9993
2 68140  34.9924  44.4904 0002020 335.1380  24.9228 14.91717827  1986
STARLINK-36604          
1 68142U 26049A   26085.25002315 -.00027571  00000+0 -14362-3 0  9993
2 68142  97.2837 105.2870 0000980 100.9955 254.3875 15.80821703  3291
STARLINK-36995          
1 68143U 26049B   26085.25002315 -.00036585  00000+0 -19103-3 0  9997
2 68143  97.2840 105.2885 0001127 103.8591 255.8062 15.80819129  3286
STARLINK-37020          
1 68144U 26049C   26085.25002315 -.00031933  00000+0 -16664-3 0  9999
2 68144  97.2839 105.2924 0000915 102.5459 265.6625 15.80809277  3289
STARLINK-36244          
1 68145U 26049D   26085.25002315 -.00001742  00000+0 -83619-5 0  9991
2 68145  97.2839 105.2946 0001096 121.6537 255.1036 15.80798234  3295
STARLINK-36980          
1 68146U 26049E   26085.25002315  .00047444  00000+0  24752-3 0  9990
2 68146  97.2839 105.2937 0001541 115.5159 256.9697 15.80776998  3287
STARLINK-37055          
1 68147U 26049F   26085.25002315 -.00001291  00000+0 -60031-5 0  9995
2 68147  97.2839 105.2902 0001322 113.7026 250.2272 15.80809529  3283
STARLINK-36981          
1 68148U 26049G   26085.25002315 -.00070033  00000+0 -36755-3 0  9990
2 68148  97.2840 105.2972 0001484 101.7183 279.3087 15.80831197  3285
STARLINK-36992          
1 68149U 26049H   26085.25002315  .00176271  00000+0  90652-3 0  9996
2 68149  97.2837 105.2988 0000921  73.7466 311.5690 15.80719236  3284
